satname,norad_id,inclination_deg,eccentricity,mean_motion_rev_per_day,perigee_km,apogee_km,l1,l2
STARLINK-1008,44714,53.0569,0.0001258,15.06387379,546.3790260408296,548.1214534703522,1 44714U 19074B   25354.81847605  .00000245  00000+0  35318-4 0  9993,2 44714  53.0569 180.6851 0001258  92.8993 267.2140 15.06387379336862
STARLINK-1012,44718,53.0546,0.0001607,15.0640102,546.0955287760598,548.3213347978362,1 44718U 19074F   25354.79635073  .00000496  00000+0  52179-4 0  9990,2 44718  53.0546 180.7827 0001607  83.9944 276.1228 15.06401020336855
STARLINK-1017,44723,53.0462,0.0006837,15.18043083,507.04483743891615,516.4660763844968,1 44723U 19074L   25354.75752147  .00007364  00000+0  37222-3 0  9996,2 44723  53.0462 173.9098 0006837 115.6160 244.5541 15.18043083336957
STARLINK-1019,44724,53.0508,0.0003009,15.57729747,392.1913767332535,396.26698670141195,1 44724U 19074M   25354.91668980  .00194124  00000+0  25145-2 0  9997,2 44724  53.0508 165.7863 0003009 196.7391 276.2384 15.57729747  5920
STARLINK-1020,44725,53.0544,0.0001319,15.06394389,546.3152991554534,548.1422106415948,1 44725U 19074N   25354.86454576 -.00001355  00000+0 -72089-4 0  9992,2 44725  53.0544 200.4780 0001319  91.5458 268.5682 15.06394389336582
STARLINK-1031,44736,53.0462,0.0003763,15.61519943,380.72161999142736,385.8102518409987,1 44736U 19074Z   25354.91668980  .00173242  00000+0  19485-2 0  9998,2 44736  53.0462 152.4323 0003763 114.6543  54.0374 15.61519943  5977
STARLINK-1036,44741,53.0536,0.0001421,15.06402771,546.2189744121224,548.1871560586615,1 44741U 19074AE  25354.03152109  .00001000  00000+0  85992-4 0  9998,2 44741  53.0536 204.2139 0001421  91.6110 268.5042 15.06402771336463
STARLINK-1039,44744,53.0472,0.0003568,15.15525819,516.9216450874346,521.8437151311618,1 44744U 19074AH  25354.62610101  .00008463  00000+0  45682-3 0  9998,2 44744  53.0472 216.6760 0003568  71.2369 288.9011 15.15525819336344
STARLINK-1042,44747,53.0455,0.0001386,15.45627334,428.5918554379923,430.4789422269496,1 44747U 19074AL  25353.64335907  .00015627  00000+0  32738-3 0  9998,2 44747  53.0455 117.5964 0001386 246.8931 113.1929 15.45627334337676
STARLINK-1043,44748,53.0537,0.0003252,15.45082736,428.92060438205226,433.3493548776041,1 44748U 19074AM  25354.79886584  .00060456  00000+0  12573-2 0  9992,2 44748  53.0537 213.0160 0003252 124.0743 236.0572 15.45082736336411
STARLINK-1046,44751,53.0534,0.0001518,15.06396446,546.1711808932441,548.2737200224028,1 44751U 19074AQ  25354.81479045  .00000236  00000+0  34740-4 0  9991,2 44751  53.0534 220.6996 0001518  97.7364 262.3797 15.06396446336303
STARLINK-1047,44752,53.0686,0.0001768,15.30541832,472.98311841908253,475.4061028766064,1 44752U 19074AR  25354.73324669  .00007363  00000+0  25776-3 0  9990,2 44752  53.0686 154.2923 0001768   9.4783 350.6250 15.30541832337243
STARLINK-1048,44753,53.0536,0.000115,15.06393586,546.434798649404,548.027633339083,1 44753U 19074AS  25354.77424610  .00000907  00000+0  79793-4 0  9998,2 44753  53.0536 180.8800 0001150  89.3600 270.7521 15.06393586336850
STARLINK-1053,44758,53.0384,0.0001486,15.68322903,362.6971795182217,364.7008531822803,1 44758U 19074AX  25354.62861353  .00057838  00000+0  50694-3 0  9999,2 44758  53.0384 119.0499 0001486 221.0226 139.0678 15.68322903337725
STARLINK-1060,44765,53.0463,0.000527,15.78779227,330.36116761437734,337.43565293680786,1 44765U 19074BE  25354.91668980  .00142806  00000+0  78602-3 0  9999,2 44765  53.0463 161.6813 0005270 176.0555 218.4320 15.78779227  5918
STARLINK-1063,44768,53.0527,0.0001564,15.06386611,546.1694626664103,548.3357245312882,1 44768U 19074BH  25354.80374220  .00002355  00000+0  17698-3 0  9993,2 44768  53.0527 220.7527 0001564  83.8663 276.2504 15.06386611336317
STARLINK-1067,44771,53.0538,0.0002523,15.17121309,512.8069287259405,516.2849765438405,1 44771U 19074BL  25354.91668980  .00068898  00000+0  34157-2 0  9990,2 44771  53.0538 219.9971 0002523  43.5416  38.6470 15.17121309  5847
STARLINK-1068,44772,53.0597,0.0001377,15.32147435,468.4636326264599,470.349446117204,1 44772U 19074BM  25354.91668980  .01105796  00000+0  32071-1 0  9993,2 44772  53.0597 198.8635 0001377  82.1391 273.0415 15.32147435  5852
STARLINK-1112,44925,53.0485,0.0009502,15.6730548,360.2074970917838,373.0252263804259,1 44925U 20001M   25354.91668980  .00099985  00000+0  90307-3 0  9994,2 44925  53.0485 278.8324 0009502  73.0545  90.7749 15.67305480  6006
STARLINK-1114,44927,53.0569,0.0001455,15.06395749,546.2169465607985,548.2322267825193,1 44927U 20001P   25354.29139207 -.00000317  00000+0 -23681-5 0  9998,2 44927  53.0569 343.0528 0001455  92.9937 267.1219 15.06395749327880
STARLINK-1123,44930,53.0568,0.0001533,15.06397781,546.1567018855176,548.2800158385444,1 44930U 20001S   25354.70421060  .00000547  00000+0  55649-4 0  9990,2 44930  53.0568 341.1976 0001533  90.5690 269.5475 15.06397781327941
STARLINK-1144,44933,53.0392,0.0003038,15.7712784,336.54243479865,340.623513855051,1 44933U 20001V   25354.91668980  .00066314  00000+0  39880-3 0  9992,2 44933  53.0392 252.7359 0003038 129.0061 120.4007 15.77127840  6038
STARLINK-1094,44941,53.0578,0.0001559,15.06402948,546.1228623260049,548.2821831891997,1 44941U 20001AD  25354.18633345 -.00001050  00000+0 -51589-4 0  9996,2 44941  53.0578 323.5241 0001559 105.3727 254.7434 15.06402948328143
STARLINK-1122,44949,53.0569,0.0001657,15.06387405,546.1026234158016,548.3976967206481,1 44949U 20001AM  25354.20844512 -.00004000  00000+0 -24988-3 0  9997,2 44949  53.0569 323.4226 0001657 116.0485 244.0674 15.06387405328140
STARLINK-1080,44961,53.0542,0.0001017,15.1349483,524.8498088176002,526.2540191427042,1 44961U 20001AZ  25354.91668980  .00030574  00000+0  16978-2 0  9994,2 44961  53.0542 300.1425 0001017 115.4643 190.5636 15.13494830  5848
STARLINK-1090,44968,53.056,0.0001396,15.06395692,546.25798086739,548.1915418711642,1 44968U 20001BG  25354.14394660 -.00001007  00000+0 -48729-4 0  9999,2 44968  53.0560 303.7146 0001396  92.1497 267.9651 15.06395692328428
STARLINK-1132,45044,53.0552,0.0001277,15.06388894,546.3612250802807,548.1299677954112,1 45044U 20006A   25354.03707479 -.00002094  00000+0 -12174-3 0  9995,2 45044  53.0552 264.1957 0001277  86.5379 273.5756 15.06388894324734
STARLINK-1131,45047,53.0547,0.0001572,15.06391555,546.1487719058041,548.326109629982,1 45047U 20006D   25354.80933441 -.00000939  00000+0 -44140-4 0  9998,2 45047  53.0547 281.2666 0001572  97.3021 262.8146 15.06391555324563
STARLINK-1134,45048,53.0368,0.0004969,15.32957713,463.5920365049051,470.3947270783292,1 45048U 20006E   25353.91634227  .00008135  00000+0  26317-3 0  9999,2 45048  53.0368 254.6214 0004969  21.6312 338.4897 15.32957713324863
STARLINK-1156,45054,53.0567,0.0001817,15.06400069,545.9530106686716,548.4696822577762,1 45054U 20006L   25353.85091117 -.00001065  00000+0 -52571-4 0  9993,2 45054  53.0567 285.0313 0001817 113.0461 247.0720 15.06400069324429
STARLINK-1159,45057,53.053,0.0007267,15.57471224,390.0565631525769,399.9006093456301,1 45057U 20006P   25354.77944093  .00027233  00000+0  36912-3 0  9991,2 45057  53.0530 264.4289 0007267  92.3086 267.8757 15.57471224324801
STARLINK-1166,45060,53.0543,0.0001379,15.06395853,546.2692606063101,548.1792752440042,1 45060U 20006S   25354.80557510  .00000976  00000+0  84439-4 0  9996,2 45060  53.0543 280.7447 0001379  89.7695 270.3452 15.06395853324572
STARLINK-1169,45061,53.0542,0.0001498,15.06425308,546.0965880543681,548.1713992440655,1 45061U 20006T   25354.81294826  .00005091  00000+0  36017-3 0  9997,2 45061  53.0542 280.7118 0001498  86.2810 273.8350 15.06425308324574
STARLINK-1171,45062,53.0544,0.0013461,15.40912456,434.232561998193,452.5975444358637,1 45062U 20006U   25354.49567439  .00045561  00000+0  10914-2 0  9998,2 45062  53.0544 269.0890 0013461  83.9092 276.3445 15.40912456324715
STARLINK-1133,45064,53.0548,0.0001521,15.06395178,546.172988949691,548.2796844767181,1 45064U 20006W   25354.47936835  .00002855  00000+0  21050-3 0  9991,2 45064  53.0548 262.2082 0001521  99.6747 260.4414 15.06395178324802
STARLINK-1167,45071,53.0549,0.0001376,15.06398213,546.2641061261229,548.1699635565101,1 45071U 20006AD  25354.04074059  .00002079  00000+0  15841-3 0  9992,2 45071  53.0549 264.1758 0001376  94.1734 265.9413 15.06398213324730
STARLINK-1168,45072,53.054,0.0001268,15.06400228,546.3327250426628,548.0889932597447,1 45072U 20006AE  25354.44250776  .00001028  00000+0  87896-4 0  9992,2 45072  53.0540 262.3693 0001268  81.5026 278.6107 15.06400228324791
STARLINK-1172,45074,53.0549,0.0001437,15.06403743,546.2049152668342,548.1952571454085,1 45074U 20006AG  25354.18817188  .00000342  00000+0  41857-4 0  9996,2 45074  53.0549 263.5151 0001437  87.9928 272.1225 15.06403743324754
STARLINK-1153,45080,53.0554,0.0001629,15.06411737,546.0474525370237,548.303719377529,1 45080U 20006AN  25354.03336944  .00006613  00000+0  46231-3 0  9990,2 45080  53.0554 264.2094 0001629  94.1603 265.9573 15.06411737324730
STARLINK-1151,45081,53.0541,0.000152,15.34672122,460.85487099346756,462.9342405864272,1 45081U 20006AP  25354.91668980  .01289640  00000+0  34584-1 0  9996,2 45081  53.0541 258.6105 0001520  78.9962 275.5755 15.34672122  5536
STARLINK-1185,45087,53.0536,0.0001616,15.06399558,546.0937760590714,548.3320491508257,1 45087U 20006AV  25354.39274718  .00000188  00000+0  31526-4 0  9999,2 45087  53.0536 242.5973 0001616  89.2907 270.8267 15.06399558325079
STARLINK-1183,45088,53.055,0.0001744,15.06398266,546.0090906882851,548.4246541189796,1 45088U 20006AW  25354.41486680  .00000230  00000+0  34314-4 0  9992,2 45088  53.0550 242.4997 0001744  89.0983 271.0205 15.06398266325075
STARLINK-1142,45093,53.0182,0.0008671,16.02282245,262.33710852368495,273.86301283431385,1 45093U 20006BB  25354.86774054  .01005524  52472-3  16845-2 0  9995,2 45093  53.0182 148.3754 0008671 273.1600  86.8438 16.02282245326432
